ORBCOMM FM33            
1 25983U 99065D   25340.81751390  .00002214  00000+0  73334-3 0  9995
2 25983  45.0280 257.9444 0007617 221.5322 138.4949 14.40508790360950
ORBCOMM FM36            
1 25984U 99065E   25340.72708909  .00002553  00000+0  87070-3 0  9992
2 25984  45.0394 352.9206 0000564  72.9103 287.1808 14.38684349359268
ORBCOMM FM35            
1 25985U 99065F   25340.76395187  .00002087  00000+0  73614-3 0  9998
2 25985  45.0399 359.1814 0004428 212.6010 147.4566 14.37596078359619
ORBCOMM FM34            
1 25986U 99065G   25340.45237421  .00001891  00000+0  67195-3 0  9990
2 25986  45.0400   1.1224 0002580 163.9741 196.1190 14.37548301359685
ORBCOMM FM38            
1 33060U 08031A   25340.91546631  .00003318  00000+0  43811-3 0  9997
2 33060  48.4375 211.6034 0004406  67.1789 292.9592 14.82226592940365
ORBCOMM FM41            
1 33061U 08031B   25340.97114448  .00003333  00000+0  44453-3 0  9991
2 33061  48.4414 219.7283 0003657  49.2014 324.2743 14.81784556939851
ORBCOMM FM29            
1 33062U 08031C   25340.89027684  .00003632  00000+0  48026-3 0  9990
2 33062  48.4371 227.6927 0005380  48.1335  51.1302 14.81928758939756
ORBCOMM FM39            
1 33063U 08031D   25340.87417062  .00003409  00000+0  46925-3 0  9990
2 33063  48.4394 253.9940 0006496  16.4132 343.6993 14.80371069939370
