<?xml version="1.0" encoding="UTF-8"?>
<ndm xmlns:xsi="http://www.w3.org/2001/XMLSchema-instance" xsi:noNamespaceSchemaLocation="https://sanaregistry.org/r/ndmxml_unqualified/ndmxml-2.0.0-master-2.0.xsd">
<omm id="CCSDS_OMM_VERS" version="2.0">
<header><CREATION_DATE/><ORIGINATOR/></header><body><segment><metadata><OBJECT_NAME>ORBCOMM FM33</OBJECT_NAME><OBJECT_ID>1999-065D</OBJECT_ID><CENTER_NAME>EARTH</CENTER_NAME><REF_FRAME>TEME</REF_FRAME><TIME_SYSTEM>UTC</TIME_SYSTEM><MEAN_ELEMENT_THEORY>SGP4</MEAN_ELEMENT_THEORY></metadata><data><meanElements><EPOCH>2025-12-06T19:37:13.200960</EPOCH><MEAN_MOTION>14.40508790</MEAN_MOTION><ECCENTRICITY>.00076175</ECCENTRICITY><INCLINATION>45.0280</INCLINATION><RA_OF_ASC_NODE>257.9444</RA_OF_ASC_NODE><ARG_OF_PERICENTER>221.5322</ARG_OF_PERICENTER><MEAN_ANOMALY>138.4949</MEAN_ANOMALY></meanElements><tleParameters><EPHEMERIS_TYPE>0</EPHEMERIS_TYPE><CLASSIFICATION_TYPE>U</CLASSIFICATION_TYPE><NORAD_CAT_ID>25983</NORAD_CAT_ID><ELEMENT_SET_NO>999</ELEMENT_SET_NO><REV_AT_EPOCH>36095</REV_AT_EPOCH><BSTAR>.73333997E-3</BSTAR><MEAN_MOTION_DOT>.2214E-4</MEAN_MOTION_DOT><MEAN_MOTION_DDOT>0</MEAN_MOTION_DDOT></tleParameters></data></segment></body></omm>
<omm id="CCSDS_OMM_VERS" version="2.0">
<header><CREATION_DATE/><ORIGINATOR/></header><body><segment><metadata><OBJECT_NAME>ORBCOMM FM36</OBJECT_NAME><OBJECT_ID>1999-065E</OBJECT_ID><CENTER_NAME>EARTH</CENTER_NAME><REF_FRAME>TEME</REF_FRAME><TIME_SYSTEM>UTC</TIME_SYSTEM><MEAN_ELEMENT_THEORY>SGP4</MEAN_ELEMENT_THEORY></metadata><data><meanElements><EPOCH>2025-12-06T17:27:00.497376</EPOCH><MEAN_MOTION>14.38684349</MEAN_MOTION><ECCENTRICITY>.00005649</ECCENTRICITY><INCLINATION>45.0394</INCLINATION><RA_OF_ASC_NODE>352.9206</RA_OF_ASC_NODE><ARG_OF_PERICENTER>72.9103</ARG_OF_PERICENTER><MEAN_ANOMALY>287.1808</MEAN_ANOMALY></meanElements><tleParameters><EPHEMERIS_TYPE>0</EPHEMERIS_TYPE><CLASSIFICATION_TYPE>U</CLASSIFICATION_TYPE><NORAD_CAT_ID>25984</NORAD_CAT_ID><ELEMENT_SET_NO>999</ELEMENT_SET_NO><REV_AT_EPOCH>35926</REV_AT_EPOCH><BSTAR>.87070334E-3</BSTAR><MEAN_MOTION_DOT>.2553E-4</MEAN_MOTION_DOT><MEAN_MOTION_DDOT>0</MEAN_MOTION_DDOT></tleParameters></data></segment></body></omm>
<omm id="CCSDS_OMM_VERS" version="2.0">
<header><CREATION_DATE/><ORIGINATOR/></header><body><segment><metadata><OBJECT_NAME>ORBCOMM FM35</OBJECT_NAME><OBJECT_ID>1999-065F</OBJECT_ID><CENTER_NAME>EARTH</CENTER_NAME><REF_FRAME>TEME</REF_FRAME><TIME_SYSTEM>UTC</TIME_SYSTEM><MEAN_ELEMENT_THEORY>SGP4</MEAN_ELEMENT_THEORY></metadata><data><meanElements><EPOCH>2025-12-06T18:20:05.441568</EPOCH><MEAN_MOTION>14.37596078</MEAN_MOTION><ECCENTRICITY>.00044287</ECCENTRICITY><INCLINATION>45.0399</INCLINATION><RA_OF_ASC_NODE>359.1814</RA_OF_ASC_NODE><ARG_OF_PERICENTER>212.6010</ARG_OF_PERICENTER><MEAN_ANOMALY>147.4566</MEAN_ANOMALY></meanElements><tleParameters><EPHEMERIS_TYPE>0</EPHEMERIS_TYPE><CLASSIFICATION_TYPE>U</CLASSIFICATION_TYPE><NORAD_CAT_ID>25985</NORAD_CAT_ID><ELEMENT_SET_NO>999</ELEMENT_SET_NO><REV_AT_EPOCH>35961</REV_AT_EPOCH><BSTAR>.73614025E-3</BSTAR><MEAN_MOTION_DOT>.2087E-4</MEAN_MOTION_DOT><MEAN_MOTION_DDOT>0</MEAN_MOTION_DDOT></tleParameters></data></segment></body></omm>
<omm id="CCSDS_OMM_VERS" version="2.0">
<header><CREATION_DATE/><ORIGINATOR/></header><body><segment><metadata><OBJECT_NAME>ORBCOMM FM34</OBJECT_NAME><OBJECT_ID>1999-065G</OBJECT_ID><CENTER_NAME>EARTH</CENTER_NAME><REF_FRAME>TEME</REF_FRAME><TIME_SYSTEM>UTC</TIME_SYSTEM><MEAN_ELEMENT_THEORY>SGP4</MEAN_ELEMENT_THEORY></metadata><data><meanElements><EPOCH>2025-12-06T10:51:25.131744</EPOCH><MEAN_MOTION>14.37548301</MEAN_MOTION><ECCENTRICITY>.00025801</ECCENTRICITY><INCLINATION>45.0400</INCLINATION><RA_OF_ASC_NODE>1.1224</RA_OF_ASC_NODE><ARG_OF_PERICENTER>163.9741</ARG_OF_PERICENTER><MEAN_ANOMALY>196.1190</MEAN_ANOMALY></meanElements><tleParameters><EPHEMERIS_TYPE>0</EPHEMERIS_TYPE><CLASSIFICATION_TYPE>U</CLASSIFICATION_TYPE><NORAD_CAT_ID>25986</NORAD_CAT_ID><ELEMENT_SET_NO>999</ELEMENT_SET_NO><REV_AT_EPOCH>35968</REV_AT_EPOCH><BSTAR>.67194728E-3</BSTAR><MEAN_MOTION_DOT>.1891E-4</MEAN_MOTION_DOT><MEAN_MOTION_DDOT>0</MEAN_MOTION_DDOT></tleParameters></data></segment></body></omm>
<omm id="CCSDS_OMM_VERS" version="2.0">
<header><CREATION_DATE/><ORIGINATOR/></header><body><segment><metadata><OBJECT_NAME>ORBCOMM FM38</OBJECT_NAME><OBJECT_ID>2008-031A</OBJECT_ID><CENTER_NAME>EARTH</CENTER_NAME><REF_FRAME>TEME</REF_FRAME><TIME_SYSTEM>UTC</TIME_SYSTEM><MEAN_ELEMENT_THEORY>SGP4</MEAN_ELEMENT_THEORY></metadata><data><meanElements><EPOCH>2025-12-06T21:58:16.289184</EPOCH><MEAN_MOTION>14.82226592</MEAN_MOTION><ECCENTRICITY>.00044066</ECCENTRICITY><INCLINATION>48.4375</INCLINATION><RA_OF_ASC_NODE>211.6034</RA_OF_ASC_NODE><ARG_OF_PERICENTER>67.1789</ARG_OF_PERICENTER><MEAN_ANOMALY>292.9592</MEAN_ANOMALY></meanElements><tleParameters><EPHEMERIS_TYPE>0</EPHEMERIS_TYPE><CLASSIFICATION_TYPE>U</CLASSIFICATION_TYPE><NORAD_CAT_ID>33060</NORAD_CAT_ID><ELEMENT_SET_NO>999</ELEMENT_SET_NO><REV_AT_EPOCH>94036</REV_AT_EPOCH><BSTAR>.438114E-3</BSTAR><MEAN_MOTION_DOT>.3318E-4</MEAN_MOTION_DOT><MEAN_MOTION_DDOT>0</MEAN_MOTION_DDOT></tleParameters></data></segment></body></omm>
<omm id="CCSDS_OMM_VERS" version="2.0">
<header><CREATION_DATE/><ORIGINATOR/></header><body><segment><metadata><OBJECT_NAME>ORBCOMM FM41</OBJECT_NAME><OBJECT_ID>2008-031B</OBJECT_ID><CENTER_NAME>EARTH</CENTER_NAME><REF_FRAME>TEME</REF_FRAME><TIME_SYSTEM>UTC</TIME_SYSTEM><MEAN_ELEMENT_THEORY>SGP4</MEAN_ELEMENT_THEORY></metadata><data><meanElements><EPOCH>2025-12-06T23:18:26.883072</EPOCH><MEAN_MOTION>14.81784556</MEAN_MOTION><ECCENTRICITY>.00036574</ECCENTRICITY><INCLINATION>48.4414</INCLINATION><RA_OF_ASC_NODE>219.7283</RA_OF_ASC_NODE><ARG_OF_PERICENTER>49.2014</ARG_OF_PERICENTER><MEAN_ANOMALY>324.2743</MEAN_ANOMALY></meanElements><tleParameters><EPHEMERIS_TYPE>0</EPHEMERIS_TYPE><CLASSIFICATION_TYPE>U</CLASSIFICATION_TYPE><NORAD_CAT_ID>33061</NORAD_CAT_ID><ELEMENT_SET_NO>999</ELEMENT_SET_NO><REV_AT_EPOCH>93985</REV_AT_EPOCH><BSTAR>.44452954E-3</BSTAR><MEAN_MOTION_DOT>.3333E-4</MEAN_MOTION_DOT><MEAN_MOTION_DDOT>0</MEAN_MOTION_DDOT></tleParameters></data></segment></body></omm>
<omm id="CCSDS_OMM_VERS" version="2.0">
<header><CREATION_DATE/><ORIGINATOR/></header><body><segment><metadata><OBJECT_NAME>ORBCOMM FM29</OBJECT_NAME><OBJECT_ID>2008-031C</OBJECT_ID><CENTER_NAME>EARTH</CENTER_NAME><REF_FRAME>TEME</REF_FRAME><TIME_SYSTEM>UTC</TIME_SYSTEM><MEAN_ELEMENT_THEORY>SGP4</MEAN_ELEMENT_THEORY></metadata><data><meanElements><EPOCH>2025-12-06T21:21:59.918976</EPOCH><MEAN_MOTION>14.81928758</MEAN_MOTION><ECCENTRICITY>.00053805</ECCENTRICITY><INCLINATION>48.4371</INCLINATION><RA_OF_ASC_NODE>227.6927</RA_OF_ASC_NODE><ARG_OF_PERICENTER>48.1335</ARG_OF_PERICENTER><MEAN_ANOMALY>51.1302</MEAN_ANOMALY></meanElements><tleParameters><EPHEMERIS_TYPE>0</EPHEMERIS_TYPE><CLASSIFICATION_TYPE>U</CLASSIFICATION_TYPE><NORAD_CAT_ID>33062</NORAD_CAT_ID><ELEMENT_SET_NO>999</ELEMENT_SET_NO><REV_AT_EPOCH>93975</REV_AT_EPOCH><BSTAR>.48026462E-3</BSTAR><MEAN_MOTION_DOT>.3632E-4</MEAN_MOTION_DOT><MEAN_MOTION_DDOT>0</MEAN_MOTION_DDOT></tleParameters></data></segment></body></omm>
<omm id="CCSDS_OMM_VERS" version="2.0">
<header><CREATION_DATE/><ORIGINATOR/></header><body><segment><metadata><OBJECT_NAME>ORBCOMM FM39</OBJECT_NAME><OBJECT_ID>2008-031D</OBJECT_ID><CENTER_NAME>EARTH</CENTER_NAME><REF_FRAME>TEME</REF_FRAME><TIME_SYSTEM>UTC</TIME_SYSTEM><MEAN_ELEMENT_THEORY>SGP4</MEAN_ELEMENT_THEORY></metadata><data><meanElements><EPOCH>2025-12-06T20:58:48.341568</EPOCH><MEAN_MOTION>14.80371069</MEAN_MOTION><ECCENTRICITY>.00064967</ECCENTRICITY><INCLINATION>48.4394</INCLINATION><RA_OF_ASC_NODE>253.9940</RA_OF_ASC_NODE><ARG_OF_PERICENTER>16.4132</ARG_OF_PERICENTER><MEAN_ANOMALY>343.6993</MEAN_ANOMALY></meanElements><tleParameters><EPHEMERIS_TYPE>0</EPHEMERIS_TYPE><CLASSIFICATION_TYPE>U</CLASSIFICATION_TYPE><NORAD_CAT_ID>33063</NORAD_CAT_ID><ELEMENT_SET_NO>999</ELEMENT_SET_NO><REV_AT_EPOCH>93937</REV_AT_EPOCH><BSTAR>.46925072E-3</BSTAR><MEAN_MOTION_DOT>.3409E-4</MEAN_MOTION_DOT><MEAN_MOTION_DDOT>0</MEAN_MOTION_DDOT></tleParameters></data></segment></body></omm>

</ndm>
